NORAD_CAT_ID,OBJECT_NAME,OBJECT_TYPE,EPOCH,MEAN_MOTION,ECCENTRICITY,INCLINATION,RA_OF_ASC_NODE,ARG_OF_PERICENTER,MEAN_ANOMALY,BSTAR,MEAN_MOTION_DOT,MEAN_MOTION_DDOT,TLE_LINE0,TLE_LINE1,TLE_LINE2,SEMIMAJOR_AXIS,PERIOD,APOGEE,PERIGEE,DECAYED
53390.0,STARLINK-4517,PAYLOAD,2022-10-22 22:00:00,15.08865496,0.0002102,53.2174,262.7503,39.6091,236.3673,-0.0012192,-0.00019653,0.0,0 STARLINK-4517,1 53390U 22097C   22295.91667824 -.00019653  00000-0 -12192-2 0  9996,2 53390  53.2174 262.7503 0002102  39.6091 236.3673 15.08865496  1308,6917.802,95.436,541.122,538.2130000000002,0.0
53390.0,STARLINK-4517,PAYLOAD,2022-10-23 08:00:01,15.08826157,0.0002292,53.2175,260.8816,34.3029,346.2668,0.0039917,0.00063792,0.0,0 STARLINK-4517,1 53390U 22097C   22296.33335648  .00063792  00000-0  39917-2 0  9994,2 53390  53.2175 260.8816 0002292  34.3029 346.2668 15.08826157 11822,6917.9230000000025,95.438,541.373,538.202,0.0
53390.0,STARLINK-4517,PAYLOAD,2022-10-23 14:00:01,15.0887045,0.0002159,53.2174,259.7581,34.7406,264.4555,-0.0017989,-0.00028828,0.0,0 STARLINK-4517,1 53390U 22097C   22296.58334491 -.00028828  00000-0 -17989-2 0  9994,2 53390  53.2174 259.7581 0002159  34.7406 264.4555 15.08870450  1305,6917.7869999999975,95.436,541.146,538.159,0.0
53390.0,STARLINK-4517,PAYLOAD,2022-10-23 22:00:00,15.08870345,0.0001961,53.2177,258.261,36.6687,274.1434,-0.0031628,-0.00050316,0.0,0 STARLINK-4517,1 53390U 22097C   22296.91667824 -.00050316  00000-0 -31628-2 0  9993,2 53390  53.2177 258.2610 0001961  36.6687 274.1434 15.08870345  1304,6917.788000000001,95.436,541.009,538.2959999999998,0.0
53390.0,STARLINK-4517,PAYLOAD,2022-10-24 14:00:01,15.08807882,0.000197,53.2175,255.2689,28.8458,305.1329,-0.0011986,-0.00019297,0.0,0 STARLINK-4517,1 53390U 22097C   22297.58334491 -.00019297  00000-0 -11986-2 0  9996,2 53390  53.2175 255.2689 0001970  28.8458 305.1329 15.08807882  1308,6917.979,95.44,541.206,538.481,0.0
53390.0,STARLINK-4517,PAYLOAD,2022-10-24 22:00:00,15.08809642,0.0001859,53.2178,253.7722,33.2291,312.2933,0.00097189,0.00015201,0.0,0 STARLINK-4517,1 53390U 22097C   22297.91667824  .00015201  00000-0  97189-3 0  9991,2 53390  53.2178 253.7722 0001859  33.2291 312.2933 15.08809642  1309,6917.973000000001,95.439,541.124,538.552,0.0
53390.0,STARLINK-4517,PAYLOAD,2022-10-25 00:00:00,15.08825502,0.000192,53.2177,253.3987,32.2957,46.1131,-0.0010792999999999,-0.00017418,0.0,0 STARLINK-4517,1 53390U 22097C   22298.00001157 -.00017418  00000-0 -10793-2 0  9992,2 53390  53.2177 253.3987 0001920  32.2957  46.1131 15.08825502 12076,6917.925,95.438,541.118,538.461,0.0
53390.0,STARLINK-4517,PAYLOAD,2022-10-25 14:00:01,15.08832068,0.0001986,53.2174,250.78,32.1485,336.5036,-0.00089464,-0.00014495,0.0,0 STARLINK-4517,1 53390U 22097C   22298.58334491 -.00014495  00000-0 -89464-3 0  9999,2 53390  53.2174 250.7800 0001986  32.1485 336.5036 15.08832068  1304,6917.905,95.438,541.144,538.396,0.0
53390.0,STARLINK-4517,PAYLOAD,2022-10-25 22:00:01,15.08840991,0.0001924,53.2176,249.2835,36.0665,344.2242,0.00042855,6.539e-05,0.0,0 STARLINK-4517,1 53390U 22097C   22298.91668981  .00006539  00000-0  42855-3 0  9991,2 53390  53.2176 249.2835 0001924  36.0665 344.2242 15.08840991 12213,6917.877,95.437,541.073,538.411,0.0
53390.0,STARLINK-4517,PAYLOAD,2022-10-26 14:00:01,15.08863558,0.0002014,53.2173,246.291,34.3457,9.0826,-0.0011335999999999,-0.00018296,0.0,0 STARLINK-4517,1 53390U 22097C   22299.58334491 -.00018296  00000-0 -11336-2 0  9995,2 53390  53.2173 246.2910 0002014  34.3457   9.0826 15.08863558  1308,6917.808000000001,95.436,541.067,538.28,0.0
53390.0,STARLINK-4517,PAYLOAD,2022-10-26 22:00:00,15.08860332,0.0001950999999999,53.2174,244.7946,36.5232,18.5177,-0.0013885999999999,-0.00022332,0.0,0 STARLINK-4517,1 53390U 22097C   22299.91667824 -.00022332  00000-0 -13886-2 0  9999,2 53390  53.2174 244.7946 0001951  36.5232  18.5177 15.08860332  1306,6917.818,95.436,541.033,538.3340000000002,0.0
53390.0,STARLINK-4517,PAYLOAD,2022-10-27 08:00:01,15.08847153,0.0002145,53.2171,242.9257,30.0381,129.52,0.00059728,9.232e-05,0.0,0 STARLINK-4517,1 53390U 22097C   22300.33334491  .00009232  00000-0  59728-3 0  9997,2 53390  53.2171 242.9257 0002145  30.0381 129.5200 15.08847153 12429,6917.859,95.437,541.207,538.24,0.0
53390.0,STARLINK-4517,PAYLOAD,2022-10-27 14:00:01,15.088399,0.0001963,53.2174,241.8019,31.8375,46.4953,0.00016228,2.295e-05,0.0,0 STARLINK-4517,1 53390U 22097C   22300.58335648  .00002295  00000-0  16228-3 0  9999,2 53390  53.2174 241.8019 0001963  31.8375  46.4953 15.08839900  1303,6917.880999999999,95.438,541.104,538.388,0.0
53390.0,STARLINK-4517,PAYLOAD,2022-10-27 22:00:00,15.08873127,0.000196,53.2174,240.3057,34.1159,55.7425,-0.0018991,-0.00030413,0.0,0 STARLINK-4517,1 53390U 22097C   22300.91667824 -.00030413  00000-0 -18991-2 0  9993,2 53390  53.2174 240.3057 0001960  34.1159  55.7425 15.08873127  1308,6917.779,95.435,541.0,538.288,0.0
53390.0,STARLINK-4517,PAYLOAD,2022-10-28 08:00:01,15.08843371,0.0002174999999999,53.2172,238.4366,29.4331,165.014,0.00017414,2.485e-05,0.0,0 STARLINK-4517,1 53390U 22097C   22301.33335648  .00002485  00000-0  17414-3 0  9992,2 53390  53.2172 238.4366 0002175  29.4331 165.0140 15.08843371 12573,6917.87,95.437,541.24,538.23,0.0
53390.0,STARLINK-4517,PAYLOAD,2022-10-28 14:00:01,15.08828666,0.0002026999999999,53.2176,237.313,32.8725,80.2812,0.0003073,4.604e-05,0.0,0 STARLINK-4517,1 53390U 22097C   22301.58335648  .00004604  00000-0  30730-3 0  9990,2 53390  53.2176 237.3130 0002027  32.8725  80.2812 15.08828666  1308,6917.915,95.438,541.182,538.378,0.0
53390.0,STARLINK-4517,PAYLOAD,2022-10-28 22:00:01,15.08865153,0.0002069,53.2176,235.8168,35.776,88.954,-0.0022948,-0.00036651,0.0,0 STARLINK-4517,1 53390U 22097C   22301.91668981 -.00036651  00000-0 -22948-2 0  9996,2 53390  53.2176 235.8168 0002069  35.7760  88.9540 15.08865153  1304,6917.804,95.436,541.1,538.237,0.0
53390.0,STARLINK-4517,PAYLOAD,2022-10-29 12:00:00,15.08836754,0.0002065999999999,53.2176,233.1986,30.8527,24.1134,-0.0024037,-0.00038337,0.0,0 STARLINK-4517,1 53390U 22097C   22302.50001157 -.00038337  00000-0 -24037-2 0  9992,2 53390  53.2176 233.1986 0002066  30.8527  24.1134 15.08836754  1303,6917.89,95.438,541.185,538.326,0.0
53390.0,STARLINK-4517,PAYLOAD,2022-10-29 22:00:01,15.08873217,0.0002004,53.2177,231.328,32.7993,126.7461,-0.00074963,-0.0001220999999999,0.0,0 STARLINK-4517,1 53390U 22097C   22302.91668981 -.00012210  00000-0 -74963-3 0  9997,2 53390  53.2177 231.3280 0002004  32.7993 126.7461 15.08873217  1308,6917.779,95.435,541.03,538.258,0.0
53390.0,STARLINK-4517,PAYLOAD,2022-10-30 00:00:00,15.08882115,0.0002058,53.2175,230.9546,31.6406,220.7472,-0.0023924,-0.00038206,0.0,0 STARLINK-4517,1 53390U 22097C   22303.00001157 -.00038206  00000-0 -23924-2 0  9997,2 53390  53.2175 230.9546 0002058  31.6406 220.7472 15.08882115 12825,6917.752,95.435,541.04,538.193,0.0
53390.0,STARLINK-4517,PAYLOAD,2022-10-30 14:00:01,15.08807555,0.0002053,53.2175,228.3352,33.6429,149.0053,0.0021064,0.00033365,0.0,0 STARLINK-4517,1 53390U 22097C   22303.58334491  .00033365  00000-0  21064-2 0  9992,2 53390  53.2175 228.3352 0002053  33.6429 149.0053 15.08807555  1307,6917.98,95.44,541.265,538.424,0.0
53390.0,STARLINK-4517,PAYLOAD,2022-10-30 22:00:01,15.08852513,0.0002126,53.2176,226.8394,37.2727,157.0062,-0.0026059,-0.00041538,0.0,0 STARLINK-4517,1 53390U 22097C   22303.91668981 -.00041538  00000-0 -26059-2 0  9995,2 53390  53.2176 226.8394 0002126  37.2727 157.0062 15.08852513  1302,6917.842,95.437,541.178,538.236,0.0
53390.0,STARLINK-4517,PAYLOAD,2022-10-31 14:00:01,15.08819838,0.000207,53.2172,223.8463,36.257,181.1391,0.00044068,6.728e-05,0.0,0 STARLINK-4517,1 53390U 22097C   22304.58334491  .00006728  00000-0  44068-3 0  9996,2 53390  53.2172 223.8463 0002070  36.2570 181.1391 15.08819838  1301,6917.941999999999,95.439,541.239,538.375,0.0
53390.0,STARLINK-4517,PAYLOAD,2022-10-31 22:00:01,15.08850703,0.0002085,53.2173,222.3507,36.8993,192.1284,-0.0014731,-0.00023664,0.0,0 STARLINK-4517,1 53390U 22097C   22304.91668981 -.00023664  00000-0 -14731-2 0  9990,2 53390  53.2173 222.3507 0002085  36.8993 192.1284 15.08850703  1305,6917.848000000001,95.437,541.155,538.27,0.0
53390.0,STARLINK-4517,PAYLOAD,2022-11-01 00:00:02,15.08853843,0.0002145999999999,53.2171,221.977,35.30300000000001,286.6237,-0.0024338,-0.0003883,0.0,0 STARLINK-4517,1 53390U 22097C   22305.00002315 -.00038830  00000-0 -24338-2 0  9999,2 53390  53.2171 221.9770 0002146  35.3030 286.6237 15.08853843 13133,6917.8380000000025,95.437,541.188,538.219,0.0
53390.0,STARLINK-4517,PAYLOAD,2022-11-01 14:00:01,15.08819137,0.0001994,53.2169,219.3573,35.3648,216.7958,0.0032781999999999,0.00052242,0.0,0 STARLINK-4517,1 53390U 22097C   22305.58334491  .00052242  00000-0  32782-2 0  9998,2 53390  53.2169 219.3573 0001994  35.3648 216.7958 15.08819137 13218,6917.944,95.439,541.189,538.43,0.0
53390.0,STARLINK-4517,PAYLOAD,2022-11-01 22:00:00,15.0887729,0.0002091,53.2169,217.8618,38.1717,225.5776,-0.0041725,-0.00066153,0.0,0 STARLINK-4517,1 53390U 22097C   22305.91667824 -.00066153  00000-0 -41725-2 0  9999,2 53390  53.2169 217.8618 0002091  38.1717 225.5776 15.08877290  1305,6917.766,95.435,541.078,538.185,0.0
53390.0,STARLINK-4517,PAYLOAD,2022-11-02 06:00:00,15.08811623,0.000222,53.2165,216.3663,35.1756,240.1899,0.0024674,0.00039169,0.0,0 STARLINK-4517,1 53390U 22097C   22306.25001157  .00039169  00000-0  24674-2 0  9997,2 53390  53.2165 216.3663 0002220  35.1756 240.1899 15.08811623 13310,6917.967,95.439,541.368,538.2959999999998,0.0
53390.0,STARLINK-4517,PAYLOAD,2022-11-02 14:00:01,15.08818532,0.0002008999999999,53.2166,214.8663,39.9404,247.0107,0.0028359,0.00045108,0.0,0 STARLINK-4517,1 53390U 22097C   22306.58334491  .00045108  00000-0  28359-2 0  9997,2 53390  53.2166 214.8663 0002009  39.9404 247.0107 15.08818532  1301,6917.946,95.439,541.201,538.4209999999998,0.0
